<?xml version="1.0" encoding="UTF-8"?>
<ndm xmlns:xsi="http://www.w3.org/2001/XMLSchema-instance" xsi:noNamespaceSchemaLocation="https://sanaregistry.org/r/ndmxml_unqualified/ndmxml-2.0.0-master-2.0.xsd">
<omm id="CCSDS_OMM_VERS" version="2.0">
<header><CREATION_DATE/><ORIGINATOR/></header><body><segment><metadata><OBJECT_NAME>ORBCOMM FM115 [+]</OBJECT_NAME><OBJECT_ID>2015-081H</OBJECT_ID><CENTER_NAME>EARTH</CENTER_NAME><REF_FRAME>TEME</REF_FRAME><TIME_SYSTEM>UTC</TIME_SYSTEM><MEAN_ELEMENT_THEORY>SGP4</MEAN_ELEMENT_THEORY></metadata><data><meanElements><EPOCH>2023-11-02T18:40:56.561952</EPOCH><MEAN_MOTION>14.60054046</MEAN_MOTION><ECCENTRICITY>.0001506</ECCENTRICITY><INCLINATION>47.0003</INCLINATION><RA_OF_ASC_NODE>331.3110</RA_OF_ASC_NODE><ARG_OF_PERICENTER>256.9962</ARG_OF_PERICENTER><MEAN_ANOMALY>103.0756</MEAN_ANOMALY></meanElements><tleParameters><EPHEMERIS_TYPE>0</EPHEMERIS_TYPE><CLASSIFICATION_TYPE>U</CLASSIFICATION_TYPE><NORAD_CAT_ID>41186</NORAD_CAT_ID><ELEMENT_SET_NO>999</ELEMENT_SET_NO><REV_AT_EPOCH>42113</REV_AT_EPOCH><BSTAR>.27726E-3</BSTAR><MEAN_MOTION_DOT>.1173E-4</MEAN_MOTION_DOT><MEAN_MOTION_DDOT>0</MEAN_MOTION_DDOT></tleParameters></data></segment></body></omm>
<omm id="CCSDS_OMM_VERS" version="2.0">
<header><CREATION_DATE/><ORIGINATOR/></header><body><segment><metadata><OBJECT_NAME>ORBCOMM FM108 [+]</OBJECT_NAME><OBJECT_ID>2015-081J</OBJECT_ID><CENTER_NAME>EARTH</CENTER_NAME><REF_FRAME>TEME</REF_FRAME><TIME_SYSTEM>UTC</TIME_SYSTEM><MEAN_ELEMENT_THEORY>SGP4</MEAN_ELEMENT_THEORY></metadata><data><meanElements><EPOCH>2023-11-02T11:58:53.275008</EPOCH><MEAN_MOTION>14.56008237</MEAN_MOTION><ECCENTRICITY>.0001647</ECCENTRICITY><INCLINATION>47.0058</INCLINATION><RA_OF_ASC_NODE>20.9848</RA_OF_ASC_NODE><ARG_OF_PERICENTER>138.9997</ARG_OF_PERICENTER><MEAN_ANOMALY>221.1012</MEAN_ANOMALY></meanElements><tleParameters><EPHEMERIS_TYPE>0</EPHEMERIS_TYPE><CLASSIFICATION_TYPE>U</CLASSIFICATION_TYPE><NORAD_CAT_ID>41187</NORAD_CAT_ID><ELEMENT_SET_NO>999</ELEMENT_SET_NO><REV_AT_EPOCH>42036</REV_AT_EPOCH><BSTAR>.41923E-3</BSTAR><MEAN_MOTION_DOT>.1696E-4</MEAN_MOTION_DOT><MEAN_MOTION_DDOT>0</MEAN_MOTION_DDOT></tleParameters></data></segment></body></omm>
<omm id="CCSDS_OMM_VERS" version="2.0">
<header><CREATION_DATE/><ORIGINATOR/></header><body><segment><metadata><OBJECT_NAME>ORBCOMM FM117 [+]</OBJECT_NAME><OBJECT_ID>2015-081K</OBJECT_ID><CENTER_NAME>EARTH</CENTER_NAME><REF_FRAME>TEME</REF_FRAME><TIME_SYSTEM>UTC</TIME_SYSTEM><MEAN_ELEMENT_THEORY>SGP4</MEAN_ELEMENT_THEORY></metadata><data><meanElements><EPOCH>2023-11-03T05:16:36.939936</EPOCH><MEAN_MOTION>14.55994963</MEAN_MOTION><ECCENTRICITY>.0002354</ECCENTRICITY><INCLINATION>47.0027</INCLINATION><RA_OF_ASC_NODE>16.5510</RA_OF_ASC_NODE><ARG_OF_PERICENTER>151.0056</ARG_OF_PERICENTER><MEAN_ANOMALY>209.0959</MEAN_ANOMALY></meanElements><tleParameters><EPHEMERIS_TYPE>0</EPHEMERIS_TYPE><CLASSIFICATION_TYPE>U</CLASSIFICATION_TYPE><NORAD_CAT_ID>41188</NORAD_CAT_ID><ELEMENT_SET_NO>999</ELEMENT_SET_NO><REV_AT_EPOCH>42056</REV_AT_EPOCH><BSTAR>.3966E-3</BSTAR><MEAN_MOTION_DOT>.1595E-4</MEAN_MOTION_DOT><MEAN_MOTION_DDOT>0</MEAN_MOTION_DDOT></tleParameters></data></segment></body></omm>
<omm id="CCSDS_OMM_VERS" version="2.0">
<header><CREATION_DATE/><ORIGINATOR/></header><body><segment><metadata><OBJECT_NAME>ORBCOMM FM116 [+]</OBJECT_NAME><OBJECT_ID>2015-081L</OBJECT_ID><CENTER_NAME>EARTH</CENTER_NAME><REF_FRAME>TEME</REF_FRAME><TIME_SYSTEM>UTC</TIME_SYSTEM><MEAN_ELEMENT_THEORY>SGP4</MEAN_ELEMENT_THEORY></metadata><data><meanElements><EPOCH>2023-11-02T17:30:02.449728</EPOCH><MEAN_MOTION>14.56003843</MEAN_MOTION><ECCENTRICITY>.0002673</ECCENTRICITY><INCLINATION>47.0009</INCLINATION><RA_OF_ASC_NODE>108.6676</RA_OF_ASC_NODE><ARG_OF_PERICENTER>223.5422</ARG_OF_PERICENTER><MEAN_ANOMALY>136.5251</MEAN_ANOMALY></meanElements><tleParameters><EPHEMERIS_TYPE>0</EPHEMERIS_TYPE><CLASSIFICATION_TYPE>U</CLASSIFICATION_TYPE><NORAD_CAT_ID>41189</NORAD_CAT_ID><ELEMENT_SET_NO>999</ELEMENT_SET_NO><REV_AT_EPOCH>41925</REV_AT_EPOCH><BSTAR>.20595E-3</BSTAR><MEAN_MOTION_DOT>.748E-5</MEAN_MOTION_DOT><MEAN_MOTION_DDOT>0</MEAN_MOTION_DDOT></tleParameters></data></segment></body></omm>
</ndm>
