ORBCOMM FM115 [+]       
1 41186U 15081H   23306.77843243  .00001173  00000+0  27726-3 0  9995
2 41186  47.0003 331.3110 0001506 256.9962 103.0756 14.60054046421132
ORBCOMM FM108 [+]       
1 41187U 15081J   23306.49922772  .00001696  00000+0  41923-3 0  9995
2 41187  47.0058  20.9848 0001647 138.9997 221.1012 14.56008237420362
ORBCOMM FM117 [+]       
1 41188U 15081K   23307.21987199  .00001595  00000+0  39660-3 0  9994
2 41188  47.0027  16.5510 0002354 151.0056 209.0959 14.55994963420560
ORBCOMM FM116 [+]       
1 41189U 15081L   23306.72919502  .00000748  00000+0  20595-3 0  9999
2 41189  47.0009 108.6676 0002673 223.5422 136.5251 14.56003843419255
